STARLINK-37070          
1 68280U 26055U   26094.25002315 -.00060896  00000+0 -30668-3 0  9997
2 68280  53.1591 209.0385 0001105 108.5884 348.8142 15.80906491  3745
STARLINK-37134          
1 68281U 26055V   26094.25002315 -.00056568  00000+0 -28456-3 0  9991
2 68281  53.1589 209.0201 0001001  45.2483  60.7007 15.80901075  3740
STARLINK-37160          
1 68282U 26055W   26094.25002315 -.00076876  00000+0 -38890-3 0  9999
2 68282  53.1589 209.0301 0000665 110.8342 350.8520 15.80902697  3744
STARLINK-37124          
1 68283U 26055X   26094.25002315 -.00087488  00000+0 -44347-3 0  9995
2 68283  53.1590 209.0121 0001667  69.2011  41.0272 15.80906726  3740
STARLINK-37159          
1 68284U 26055Y   26094.25002315 -.00104984  00000+0 -53390-3 0  9995
2 68284  53.1588 209.0034 0001161  73.0976  41.4059 15.80910241  3747
STARLINK-36725          
1 68285U 26055Z   26094.25002315 -.00065522  00000+0 -33067-3 0  9999
2 68285  53.1590 208.9933 0001046  90.8117  27.9699 15.80890519  3747
STARLINK-36998          
1 68286U 26055AA  26094.25002315 -.00101412  00000+0 -51538-3 0  9992
2 68286  53.1589 208.9780 0001382  83.4186  43.9017 15.80910699  3747
STARLINK-37165          
1 68287U 26055AB  26094.25002315 -.00094561  00000+0 -47989-3 0  9994
2 68287  53.1589 208.9672 0001067 106.6583  24.9247 15.80913718  3746
STARLINK-37016          
1 68288U 26055AC  26094.25002315 -.00036901  00000+0 -18394-3 0  9997
2 68288  53.1587 208.9853 0001253  78.3795  44.6598 15.80904202  3749
STARLINK-37010          
1 68289U 26055AD  26094.25002315 -.00103596  00000+0 -52648-3 0  9993
2 68289  53.1589 208.9585 0001149 100.6863  35.1608 15.80920011  3746
STARLINK-37151          
1 68290U 26055AE  26094.25002315 -.00031182  00000+0 -15482-3 0  9991
2 68290  53.1589 208.9494 0001245  68.8020  71.3266 15.80899412  3746
STRIX-6                 
1 68291U 26056A   26093.11013840  .00008302  00000+0  68400-3 0  9996
2 68291  50.2841 344.5578 0016540 316.2429  43.7208 14.99677076  2009
