CCSDS_OMM_VERS = 2.0
CREATION_DATE  = 
ORIGINATOR     = 

OBJECT_NAME    = STARLINK-37070
OBJECT_ID      = 2026-055U
CENTER_NAME    = EARTH
REF_FRAME      = TEME
TIME_SYSTEM    = UTC
MEAN_ELEMENT_THEORY = SGP/SGP4

EPOCH          = 2026-04-04T06:00:02.000160
MEAN_MOTION    = 15.80906491
ECCENTRICITY   = .00011059
INCLINATION    = 53.1591
RA_OF_ASC_NODE = 209.0385
ARG_OF_PERICENTER = 108.5884
MEAN_ANOMALY   = 348.8142

EPHEMERIS_TYPE = 0
CLASSIFICATION_TYPE = U
NORAD_CAT_ID   = 68280
ELEMENT_SET_NO = 999
REV_AT_EPOCH   = 374
BSTAR          = -.30668165E-3
MEAN_MOTION_DOT = -.60896E-3
MEAN_MOTION_DDOT = 0

CCSDS_OMM_VERS = 2.0
CREATION_DATE  = 
ORIGINATOR     = 

OBJECT_NAME    = STARLINK-37134
OBJECT_ID      = 2026-055V
CENTER_NAME    = EARTH
REF_FRAME      = TEME
TIME_SYSTEM    = UTC
MEAN_ELEMENT_THEORY = SGP/SGP4

EPOCH          = 2026-04-04T06:00:02.000160
MEAN_MOTION    = 15.80901075
ECCENTRICITY   = .00010019
INCLINATION    = 53.1589
RA_OF_ASC_NODE = 209.0201
ARG_OF_PERICENTER = 45.2483
MEAN_ANOMALY   = 60.7007

EPHEMERIS_TYPE = 0
CLASSIFICATION_TYPE = U
NORAD_CAT_ID   = 68281
ELEMENT_SET_NO = 999
REV_AT_EPOCH   = 374
BSTAR          = -.28456275E-3
MEAN_MOTION_DOT = -.56568E-3
MEAN_MOTION_DDOT = 0

CCSDS_OMM_VERS = 2.0
CREATION_DATE  = 
ORIGINATOR     = 

OBJECT_NAME    = STARLINK-37160
OBJECT_ID      = 2026-055W
CENTER_NAME    = EARTH
REF_FRAME      = TEME
TIME_SYSTEM    = UTC
MEAN_ELEMENT_THEORY = SGP/SGP4

EPOCH          = 2026-04-04T06:00:02.000160
MEAN_MOTION    = 15.80902697
ECCENTRICITY   = .00006658
INCLINATION    = 53.1589
RA_OF_ASC_NODE = 209.0301
ARG_OF_PERICENTER = 110.8342
MEAN_ANOMALY   = 350.8520

EPHEMERIS_TYPE = 0
CLASSIFICATION_TYPE = U
NORAD_CAT_ID   = 68282
ELEMENT_SET_NO = 999
REV_AT_EPOCH   = 374
BSTAR          = -.3888959E-3
MEAN_MOTION_DOT = -.76876E-3
MEAN_MOTION_DDOT = 0

CCSDS_OMM_VERS = 2.0
CREATION_DATE  = 
ORIGINATOR     = 

OBJECT_NAME    = STARLINK-37124
OBJECT_ID      = 2026-055X
CENTER_NAME    = EARTH
REF_FRAME      = TEME
TIME_SYSTEM    = UTC
MEAN_ELEMENT_THEORY = SGP/SGP4

EPOCH          = 2026-04-04T06:00:02.000160
MEAN_MOTION    = 15.80906726
ECCENTRICITY   = .00016675
INCLINATION    = 53.1590
RA_OF_ASC_NODE = 209.0121
ARG_OF_PERICENTER = 69.2011
MEAN_ANOMALY   = 41.0272

EPHEMERIS_TYPE = 0
CLASSIFICATION_TYPE = U
NORAD_CAT_ID   = 68283
ELEMENT_SET_NO = 999
REV_AT_EPOCH   = 374
BSTAR          = -.4434718E-3
MEAN_MOTION_DOT = -.87488E-3
MEAN_MOTION_DDOT = 0

CCSDS_OMM_VERS = 2.0
CREATION_DATE  = 
ORIGINATOR     = 

OBJECT_NAME    = STARLINK-37159
OBJECT_ID      = 2026-055Y
CENTER_NAME    = EARTH
REF_FRAME      = TEME
TIME_SYSTEM    = UTC
MEAN_ELEMENT_THEORY = SGP/SGP4

EPOCH          = 2026-04-04T06:00:02.000160
MEAN_MOTION    = 15.80910241
ECCENTRICITY   = .00011618
INCLINATION    = 53.1588
RA_OF_ASC_NODE = 209.0034
ARG_OF_PERICENTER = 73.0976
MEAN_ANOMALY   = 41.4059

EPHEMERIS_TYPE = 0
CLASSIFICATION_TYPE = U
NORAD_CAT_ID   = 68284
ELEMENT_SET_NO = 999
REV_AT_EPOCH   = 374
BSTAR          = -.53390312E-3
MEAN_MOTION_DOT = -.104984E-2
MEAN_MOTION_DDOT = 0

CCSDS_OMM_VERS = 2.0
CREATION_DATE  = 
ORIGINATOR     = 

OBJECT_NAME    = STARLINK-36725
OBJECT_ID      = 2026-055Z
CENTER_NAME    = EARTH
REF_FRAME      = TEME
TIME_SYSTEM    = UTC
MEAN_ELEMENT_THEORY = SGP/SGP4

EPOCH          = 2026-04-04T06:00:02.000160
MEAN_MOTION    = 15.80890519
ECCENTRICITY   = .00010463
INCLINATION    = 53.1590
RA_OF_ASC_NODE = 208.9933
ARG_OF_PERICENTER = 90.8117
MEAN_ANOMALY   = 27.9699

EPHEMERIS_TYPE = 0
CLASSIFICATION_TYPE = U
NORAD_CAT_ID   = 68285
ELEMENT_SET_NO = 999
REV_AT_EPOCH   = 374
BSTAR          = -.33067198E-3
MEAN_MOTION_DOT = -.65522E-3
MEAN_MOTION_DDOT = 0

CCSDS_OMM_VERS = 2.0
CREATION_DATE  = 
ORIGINATOR     = 

OBJECT_NAME    = STARLINK-36998
OBJECT_ID      = 2026-055AA
CENTER_NAME    = EARTH
REF_FRAME      = TEME
TIME_SYSTEM    = UTC
MEAN_ELEMENT_THEORY = SGP/SGP4

EPOCH          = 2026-04-04T06:00:02.000160
MEAN_MOTION    = 15.80910699
ECCENTRICITY   = .00013824
INCLINATION    = 53.1589
RA_OF_ASC_NODE = 208.9780
ARG_OF_PERICENTER = 83.4186
MEAN_ANOMALY   = 43.9017

EPHEMERIS_TYPE = 0
CLASSIFICATION_TYPE = U
NORAD_CAT_ID   = 68286
ELEMENT_SET_NO = 999
REV_AT_EPOCH   = 374
BSTAR          = -.5153761E-3
MEAN_MOTION_DOT = -.101412E-2
MEAN_MOTION_DDOT = 0

CCSDS_OMM_VERS = 2.0
CREATION_DATE  = 
ORIGINATOR     = 

OBJECT_NAME    = STARLINK-37165
OBJECT_ID      = 2026-055AB
CENTER_NAME    = EARTH
REF_FRAME      = TEME
TIME_SYSTEM    = UTC
MEAN_ELEMENT_THEORY = SGP/SGP4

EPOCH          = 2026-04-04T06:00:02.000160
MEAN_MOTION    = 15.80913718
ECCENTRICITY   = .00010676
INCLINATION    = 53.1589
RA_OF_ASC_NODE = 208.9672
ARG_OF_PERICENTER = 106.6583
MEAN_ANOMALY   = 24.9247

EPHEMERIS_TYPE = 0
CLASSIFICATION_TYPE = U
NORAD_CAT_ID   = 68287
ELEMENT_SET_NO = 999
REV_AT_EPOCH   = 374
BSTAR          = -.47989295E-3
MEAN_MOTION_DOT = -.94561E-3
MEAN_MOTION_DDOT = 0

CCSDS_OMM_VERS = 2.0
CREATION_DATE  = 
ORIGINATOR     = 

OBJECT_NAME    = STARLINK-37016
OBJECT_ID      = 2026-055AC
CENTER_NAME    = EARTH
REF_FRAME      = TEME
TIME_SYSTEM    = UTC
MEAN_ELEMENT_THEORY = SGP/SGP4

EPOCH          = 2026-04-04T06:00:02.000160
MEAN_MOTION    = 15.80904202
ECCENTRICITY   = .00012537
INCLINATION    = 53.1587
RA_OF_ASC_NODE = 208.9853
ARG_OF_PERICENTER = 78.3795
MEAN_ANOMALY   = 44.6598

EPHEMERIS_TYPE = 0
CLASSIFICATION_TYPE = U
NORAD_CAT_ID   = 68288
ELEMENT_SET_NO = 999
REV_AT_EPOCH   = 374
BSTAR          = -.18394017E-3
MEAN_MOTION_DOT = -.36901E-3
MEAN_MOTION_DDOT = 0

CCSDS_OMM_VERS = 2.0
CREATION_DATE  = 
ORIGINATOR     = 

OBJECT_NAME    = STARLINK-37010
OBJECT_ID      = 2026-055AD
CENTER_NAME    = EARTH
REF_FRAME      = TEME
TIME_SYSTEM    = UTC
MEAN_ELEMENT_THEORY = SGP/SGP4

EPOCH          = 2026-04-04T06:00:02.000160
MEAN_MOTION    = 15.80920011
ECCENTRICITY   = .00011496
INCLINATION    = 53.1589
RA_OF_ASC_NODE = 208.9585
ARG_OF_PERICENTER = 100.6863
MEAN_ANOMALY   = 35.1608

EPHEMERIS_TYPE = 0
CLASSIFICATION_TYPE = U
NORAD_CAT_ID   = 68289
ELEMENT_SET_NO = 999
REV_AT_EPOCH   = 374
BSTAR          = -.52647568E-3
MEAN_MOTION_DOT = -.103596E-2
MEAN_MOTION_DDOT = 0

CCSDS_OMM_VERS = 2.0
CREATION_DATE  = 
ORIGINATOR     = 

OBJECT_NAME    = STARLINK-37151
OBJECT_ID      = 2026-055AE
CENTER_NAME    = EARTH
REF_FRAME      = TEME
TIME_SYSTEM    = UTC
MEAN_ELEMENT_THEORY = SGP/SGP4

EPOCH          = 2026-04-04T06:00:02.000160
MEAN_MOTION    = 15.80899412
ECCENTRICITY   = .00012455
INCLINATION    = 53.1589
RA_OF_ASC_NODE = 208.9494
ARG_OF_PERICENTER = 68.8020
MEAN_ANOMALY   = 71.3266

EPHEMERIS_TYPE = 0
CLASSIFICATION_TYPE = U
NORAD_CAT_ID   = 68290
ELEMENT_SET_NO = 999
REV_AT_EPOCH   = 374
BSTAR          = -.15481549E-3
MEAN_MOTION_DOT = -.31182E-3
MEAN_MOTION_DDOT = 0

CCSDS_OMM_VERS = 2.0
CREATION_DATE  = 
ORIGINATOR     = 

OBJECT_NAME    = STRIX-6
OBJECT_ID      = 2026-056A
CENTER_NAME    = EARTH
REF_FRAME      = TEME
TIME_SYSTEM    = UTC
MEAN_ELEMENT_THEORY = SGP/SGP4

EPOCH          = 2026-04-03T02:38:35.957760
MEAN_MOTION    = 14.99677076
ECCENTRICITY   = .001654
INCLINATION    = 50.2841
RA_OF_ASC_NODE = 344.5578
ARG_OF_PERICENTER = 316.2429
MEAN_ANOMALY   = 43.7208

EPHEMERIS_TYPE = 0
CLASSIFICATION_TYPE = U
NORAD_CAT_ID   = 68291
ELEMENT_SET_NO = 999
REV_AT_EPOCH   = 200
BSTAR          = .684E-3
MEAN_MOTION_DOT = .8302E-4
MEAN_MOTION_DDOT = 0

